CCSDS_OMM_VERS = 2.0
CREATION_DATE  = 
ORIGINATOR     = 

OBJECT_NAME    = ATLAS CENTAUR R/B
OBJECT_ID      = 1972-065B
CENTER_NAME    = EARTH
REF_FRAME      = TEME
TIME_SYSTEM    = UTC
MEAN_ELEMENT_THEORY = SGP/SGP4

EPOCH          = 2026-01-14T18:32:07.204704
MEAN_MOTION    = 14.77507895
ECCENTRICITY   = .0034619
INCLINATION    = 35.0011
RA_OF_ASC_NODE = 261.6889
ARG_OF_PERICENTER = 276.4674
MEAN_ANOMALY   = 83.2085

EPHEMERIS_TYPE = 0
CLASSIFICATION_TYPE = U
NORAD_CAT_ID   = 6155
ELEMENT_SET_NO = 999
REV_AT_EPOCH   = 83328
BSTAR          = .99723E-4
MEAN_MOTION_DOT = .706E-5
MEAN_MOTION_DDOT = 0

CCSDS_OMM_VERS = 2.0
CREATION_DATE  = 
ORIGINATOR     = 

OBJECT_NAME    = SL-8 R/B
OBJECT_ID      = 1975-112B
CENTER_NAME    = EARTH
REF_FRAME      = TEME
TIME_SYSTEM    = UTC
MEAN_ELEMENT_THEORY = SGP/SGP4

EPOCH          = 2026-01-14T17:35:44.450304
MEAN_MOTION    = 14.38169719
ECCENTRICITY   = .0016412
INCLINATION    = 74.0614
RA_OF_ASC_NODE = 118.1719
ARG_OF_PERICENTER = 226.1009
MEAN_ANOMALY   = 133.8790

EPHEMERIS_TYPE = 0
CLASSIFICATION_TYPE = U
NORAD_CAT_ID   = 8459
ELEMENT_SET_NO = 999
REV_AT_EPOCH   = 62411
BSTAR          = .56549E-4
MEAN_MOTION_DOT = .146E-5
MEAN_MOTION_DDOT = 0

CCSDS_OMM_VERS = 2.0
CREATION_DATE  = 
ORIGINATOR     = 

OBJECT_NAME    = SL-3 R/B
OBJECT_ID      = 1977-057B
CENTER_NAME    = EARTH
REF_FRAME      = TEME
TIME_SYSTEM    = UTC
MEAN_ELEMENT_THEORY = SGP/SGP4

EPOCH          = 2026-01-14T22:49:50.636928
MEAN_MOTION    = 15.43851126
ECCENTRICITY   = .00084862
INCLINATION    = 97.5698
RA_OF_ASC_NODE = 184.5987
ARG_OF_PERICENTER = 113.5114
MEAN_ANOMALY   = 246.7026

EPHEMERIS_TYPE = 0
CLASSIFICATION_TYPE = U
NORAD_CAT_ID   = 10114
ELEMENT_SET_NO = 999
REV_AT_EPOCH   = 66003
BSTAR          = .15899745E-3
MEAN_MOTION_DOT = .7125E-4
MEAN_MOTION_DDOT = 0

CCSDS_OMM_VERS = 2.0
CREATION_DATE  = 
ORIGINATOR     = 

OBJECT_NAME    = SEASAT 1
OBJECT_ID      = 1978-064A
CENTER_NAME    = EARTH
REF_FRAME      = TEME
TIME_SYSTEM    = UTC
MEAN_ELEMENT_THEORY = SGP/SGP4

EPOCH          = 2026-01-14T19:37:17.450112
MEAN_MOTION    = 14.46102731
ECCENTRICITY   = .0001171
INCLINATION    = 108.0157
RA_OF_ASC_NODE = 12.4399
ARG_OF_PERICENTER = 276.5042
MEAN_ANOMALY   = 83.5970

EPHEMERIS_TYPE = 0
CLASSIFICATION_TYPE = U
NORAD_CAT_ID   = 10967
ELEMENT_SET_NO = 999
REV_AT_EPOCH   = 49872
BSTAR          = .90423E-4
MEAN_MOTION_DOT = .185E-5
MEAN_MOTION_DDOT = 0

CCSDS_OMM_VERS = 2.0
CREATION_DATE  = 
ORIGINATOR     = 

OBJECT_NAME    = SL-14 R/B
OBJECT_ID      = 1979-011B
CENTER_NAME    = EARTH
REF_FRAME      = TEME
TIME_SYSTEM    = UTC
MEAN_ELEMENT_THEORY = SGP/SGP4

EPOCH          = 2026-01-14T20:32:40.539264
MEAN_MOTION    = 14.91821991
ECCENTRICITY   = .00148769
INCLINATION    = 82.5257
RA_OF_ASC_NODE = 147.6372
ARG_OF_PERICENTER = 234.3380
MEAN_ANOMALY   = 125.6455

EPHEMERIS_TYPE = 0
CLASSIFICATION_TYPE = U
NORAD_CAT_ID   = 11267
ELEMENT_SET_NO = 999
REV_AT_EPOCH   = 52075
BSTAR          = .4502133E-4
MEAN_MOTION_DOT = .48E-5
MEAN_MOTION_DDOT = 0

CCSDS_OMM_VERS = 2.0
CREATION_DATE  = 
ORIGINATOR     = 

OBJECT_NAME    = SL-8 R/B
OBJECT_ID      = 1979-089B
CENTER_NAME    = EARTH
REF_FRAME      = TEME
TIME_SYSTEM    = UTC
MEAN_ELEMENT_THEORY = SGP/SGP4

EPOCH          = 2026-01-14T22:07:37.655040
MEAN_MOTION    = 14.42307108
ECCENTRICITY   = .00154875
INCLINATION    = 74.0674
RA_OF_ASC_NODE = 190.5640
ARG_OF_PERICENTER = 12.4194
MEAN_ANOMALY   = 347.7341

EPHEMERIS_TYPE = 0
CLASSIFICATION_TYPE = U
NORAD_CAT_ID   = 11574
ELEMENT_SET_NO = 999
REV_AT_EPOCH   = 42835
BSTAR          = .83816147E-4
MEAN_MOTION_DOT = .251E-5
MEAN_MOTION_DDOT = 0

CCSDS_OMM_VERS = 2.0
CREATION_DATE  = 
ORIGINATOR     = 

OBJECT_NAME    = SL-14 R/B
OBJECT_ID      = 1980-005B
CENTER_NAME    = EARTH
REF_FRAME      = TEME
TIME_SYSTEM    = UTC
MEAN_ELEMENT_THEORY = SGP/SGP4

EPOCH          = 2026-01-14T23:13:51.985056
MEAN_MOTION    = 14.90840374
ECCENTRICITY   = .00154072
INCLINATION    = 82.5148
RA_OF_ASC_NODE = 358.1805
ARG_OF_PERICENTER = 348.7734
MEAN_ANOMALY   = 11.3139

EPHEMERIS_TYPE = 0
CLASSIFICATION_TYPE = U
NORAD_CAT_ID   = 11672
ELEMENT_SET_NO = 999
REV_AT_EPOCH   = 46848
BSTAR          = .44053555E-4
MEAN_MOTION_DOT = .46E-5
MEAN_MOTION_DDOT = 0

CCSDS_OMM_VERS = 2.0
CREATION_DATE  = 
ORIGINATOR     = 

OBJECT_NAME    = SL-8 R/B
OBJECT_ID      = 1981-003B
CENTER_NAME    = EARTH
REF_FRAME      = TEME
TIME_SYSTEM    = UTC
MEAN_ELEMENT_THEORY = SGP/SGP4

EPOCH          = 2026-01-14T20:32:12.304608
MEAN_MOTION    = 15.08476552
ECCENTRICITY   = .02717484
INCLINATION    = 82.9383
RA_OF_ASC_NODE = 339.7217
ARG_OF_PERICENTER = 6.6101
MEAN_ANOMALY   = 353.8592

EPHEMERIS_TYPE = 0
CLASSIFICATION_TYPE = U
NORAD_CAT_ID   = 12139
ELEMENT_SET_NO = 999
REV_AT_EPOCH   = 30655
BSTAR          = .45689019E-3
MEAN_MOTION_DOT = .17271E-3
MEAN_MOTION_DDOT = 0

CCSDS_OMM_VERS = 2.0
CREATION_DATE  = 
ORIGINATOR     = 

OBJECT_NAME    = SL-3 R/B
OBJECT_ID      = 1981-046B
CENTER_NAME    = EARTH
REF_FRAME      = TEME
TIME_SYSTEM    = UTC
MEAN_ELEMENT_THEORY = SGP/SGP4

EPOCH          = 2026-01-14T23:05:16.270368
MEAN_MOTION    = 15.40413731
ECCENTRICITY   = .00186023
INCLINATION    = 81.2326
RA_OF_ASC_NODE = 354.1674
ARG_OF_PERICENTER = 201.0575
MEAN_ANOMALY   = 158.9903

EPHEMERIS_TYPE = 0
CLASSIFICATION_TYPE = U
NORAD_CAT_ID   = 12465
ELEMENT_SET_NO = 999
REV_AT_EPOCH   = 43015
BSTAR          = .16591057E-3
MEAN_MOTION_DOT = .6779E-4
MEAN_MOTION_DDOT = 0

CCSDS_OMM_VERS = 2.0
CREATION_DATE  = 
ORIGINATOR     = 

OBJECT_NAME    = SL-3 R/B
OBJECT_ID      = 1981-103B
CENTER_NAME    = EARTH
REF_FRAME      = TEME
TIME_SYSTEM    = UTC
MEAN_ELEMENT_THEORY = SGP/SGP4

EPOCH          = 2026-01-14T21:27:43.267392
MEAN_MOTION    = 15.20675608
ECCENTRICITY   = .00143359
INCLINATION    = 81.1594
RA_OF_ASC_NODE = 276.5155
ARG_OF_PERICENTER = 103.8009
MEAN_ANOMALY   = 256.4818

EPHEMERIS_TYPE = 0
CLASSIFICATION_TYPE = U
NORAD_CAT_ID   = 12904
ELEMENT_SET_NO = 999
REV_AT_EPOCH   = 96505
BSTAR          = .1041605E-3
MEAN_MOTION_DOT = .2319E-4
MEAN_MOTION_DDOT = 0

CCSDS_OMM_VERS = 2.0
CREATION_DATE  = 
ORIGINATOR     = 

OBJECT_NAME    = SL-3 R/B
OBJECT_ID      = 1982-013B
CENTER_NAME    = EARTH
REF_FRAME      = TEME
TIME_SYSTEM    = UTC
MEAN_ELEMENT_THEORY = SGP/SGP4

EPOCH          = 2026-01-14T23:48:14.309856
MEAN_MOTION    = 15.21402469
ECCENTRICITY   = .00229317
INCLINATION    = 81.1726
RA_OF_ASC_NODE = 223.6781
ARG_OF_PERICENTER = 3.3007
MEAN_ANOMALY   = 356.8371

EPHEMERIS_TYPE = 0
CLASSIFICATION_TYPE = U
NORAD_CAT_ID   = 13068
ELEMENT_SET_NO = 999
REV_AT_EPOCH   = 39618
BSTAR          = .11263841E-3
MEAN_MOTION_DOT = .257E-4
MEAN_MOTION_DDOT = 0

CCSDS_OMM_VERS = 2.0
CREATION_DATE  = 
ORIGINATOR     = 

OBJECT_NAME    = SL-3 R/B
OBJECT_ID      = 1982-039B
CENTER_NAME    = EARTH
REF_FRAME      = TEME
TIME_SYSTEM    = UTC
MEAN_ELEMENT_THEORY = SGP/SGP4

EPOCH          = 2026-01-14T21:54:19.330272
MEAN_MOTION    = 15.09746187
ECCENTRICITY   = .00298836
INCLINATION    = 81.1680
RA_OF_ASC_NODE = 277.9237
ARG_OF_PERICENTER = 140.5014
MEAN_ANOMALY   = 219.8398

EPHEMERIS_TYPE = 0
CLASSIFICATION_TYPE = U
NORAD_CAT_ID   = 13154
ELEMENT_SET_NO = 999
REV_AT_EPOCH   = 37352
BSTAR          = .80736965E-4
MEAN_MOTION_DOT = .134E-4
MEAN_MOTION_DDOT = 0

