ATLAS CENTAUR R/B       
1 06155U 72065B   26014.77230561  .00000706  00000+0  99723-4 0  9997
2 06155  35.0011 261.6889 0034619 276.4674  83.2085 14.77507895833281
SL-8 R/B                
1 08459U 75112B   26014.73315336  .00000146  00000+0  56549-4 0  9999
2 08459  74.0614 118.1719 0016412 226.1009 133.8790 14.38169719624116
SL-3 R/B                
1 10114U 77057B   26014.95128052  .00007125  00000+0  15900-3 0  9990
2 10114  97.5698 184.5987 0008486 113.5114 246.7026 15.43851126660035
SEASAT 1                
1 10967U 78064A   26014.81756308  .00000185  00000+0  90423-4 0  9994
2 10967 108.0157  12.4399 0001171 276.5042  83.5970 14.46102731498722
SL-14 R/B               
1 11267U 79011B   26014.85602476  .00000480  00000+0  45021-4 0  9993
2 11267  82.5257 147.6372 0014876 234.3380 125.6455 14.91821991520759
SL-8 R/B                
1 11574U 79089B   26014.92196360  .00000251  00000+0  83816-4 0  9997
2 11574  74.0674 190.5640 0015487  12.4194 347.7341 14.42307108428350
SL-14 R/B               
1 11672U 80005B   26014.96796279  .00000460  00000+0  44054-4 0  9998
2 11672  82.5148 358.1805 0015407 348.7734  11.3139 14.90840374468488
SL-8 R/B                
1 12139U 81003B   26014.85569797  .00017271  00000+0  45689-3 0  9999
2 12139  82.9383 339.7217 0271748   6.6101 353.8592 15.08476552306553
SL-3 R/B                
1 12465U 81046B   26014.96199387  .00006779  00000+0  16591-3 0  9995
2 12465  81.2326 354.1674 0018602 201.0575 158.9903 15.40413731430156
SL-3 R/B                
1 12904U 81103B   26014.89425078  .00002319  00000+0  10416-3 0  9994
2 12904  81.1594 276.5155 0014335 103.8009 256.4818 15.20675608965053
SL-3 R/B                
1 13068U 82013B   26014.99183229  .00002570  00000+0  11264-3 0  9998
2 13068  81.1726 223.6781 0022931   3.3007 356.8371 15.21402469396188
SL-3 R/B                
1 13154U 82039B   26014.91272373  .00001340  00000+0  80737-4 0  9999
2 13154  81.1680 277.9237 0029883 140.5014 219.8398 15.09746187373520
